<?xml version="1.0" encoding="UTF-8"?>
<ndm xmlns:xsi="http://www.w3.org/2001/XMLSchema-instance" xsi:noNamespaceSchemaLocation="https://sanaregistry.org/r/ndmxml_unqualified/ndmxml-2.0.0-master-2.0.xsd">
<omm id="CCSDS_OMM_VERS" version="2.0">
<header><CREATION_DATE/><ORIGINATOR/></header><body><segment><metadata><OBJECT_NAME>ORBCOMM FM24</OBJECT_NAME><OBJECT_ID>1998-053D</OBJECT_ID><CENTER_NAME>EARTH</CENTER_NAME><REF_FRAME>TEME</REF_FRAME><TIME_SYSTEM>UTC</TIME_SYSTEM><MEAN_ELEMENT_THEORY>SGP4</MEAN_ELEMENT_THEORY></metadata><data><meanElements><EPOCH>2024-09-23T21:50:59.621856</EPOCH><MEAN_MOTION>14.36455996</MEAN_MOTION><ECCENTRICITY>.0000588</ECCENTRICITY><INCLINATION>45.0075</INCLINATION><RA_OF_ASC_NODE>90.2762</RA_OF_ASC_NODE><ARG_OF_PERICENTER>292.8212</ARG_OF_PERICENTER><MEAN_ANOMALY>67.2573</MEAN_ANOMALY></meanElements><tleParameters><EPHEMERIS_TYPE>0</EPHEMERIS_TYPE><CLASSIFICATION_TYPE>U</CLASSIFICATION_TYPE><NORAD_CAT_ID>25478</NORAD_CAT_ID><ELEMENT_SET_NO>999</ELEMENT_SET_NO><REV_AT_EPOCH>35913</REV_AT_EPOCH><BSTAR>.13126E-2</BSTAR><MEAN_MOTION_DOT>.3744E-4</MEAN_MOTION_DOT><MEAN_MOTION_DDOT>0</MEAN_MOTION_DDOT></tleParameters></data></segment></body></omm>
<omm id="CCSDS_OMM_VERS" version="2.0">
<header><CREATION_DATE/><ORIGINATOR/></header><body><segment><metadata><OBJECT_NAME>ORBCOMM FM25</OBJECT_NAME><OBJECT_ID>1998-053E</OBJECT_ID><CENTER_NAME>EARTH</CENTER_NAME><REF_FRAME>TEME</REF_FRAME><TIME_SYSTEM>UTC</TIME_SYSTEM><MEAN_ELEMENT_THEORY>SGP4</MEAN_ELEMENT_THEORY></metadata><data><meanElements><EPOCH>2024-09-23T22:44:59.910432</EPOCH><MEAN_MOTION>14.36435781</MEAN_MOTION><ECCENTRICITY>.0002763</ECCENTRICITY><INCLINATION>45.0065</INCLINATION><RA_OF_ASC_NODE>88.3511</RA_OF_ASC_NODE><ARG_OF_PERICENTER>349.8708</ARG_OF_PERICENTER><MEAN_ANOMALY>10.2083</MEAN_ANOMALY></meanElements><tleParameters><EPHEMERIS_TYPE>0</EPHEMERIS_TYPE><CLASSIFICATION_TYPE>U</CLASSIFICATION_TYPE><NORAD_CAT_ID>25479</NORAD_CAT_ID><ELEMENT_SET_NO>999</ELEMENT_SET_NO><REV_AT_EPOCH>35943</REV_AT_EPOCH><BSTAR>.12611E-2</BSTAR><MEAN_MOTION_DOT>.359E-4</MEAN_MOTION_DOT><MEAN_MOTION_DDOT>0</MEAN_MOTION_DDOT></tleParameters></data></segment></body></omm>
<omm id="CCSDS_OMM_VERS" version="2.0">
<header><CREATION_DATE/><ORIGINATOR/></header><body><segment><metadata><OBJECT_NAME>ORBCOMM FM26</OBJECT_NAME><OBJECT_ID>1998-053F</OBJECT_ID><CENTER_NAME>EARTH</CENTER_NAME><REF_FRAME>TEME</REF_FRAME><TIME_SYSTEM>UTC</TIME_SYSTEM><MEAN_ELEMENT_THEORY>SGP4</MEAN_ELEMENT_THEORY></metadata><data><meanElements><EPOCH>2024-09-23T20:57:17.341632</EPOCH><MEAN_MOTION>14.35750500</MEAN_MOTION><ECCENTRICITY>.0004869</ECCENTRICITY><INCLINATION>45.0070</INCLINATION><RA_OF_ASC_NODE>83.4538</RA_OF_ASC_NODE><ARG_OF_PERICENTER>15.3082</ARG_OF_PERICENTER><MEAN_ANOMALY>344.7912</MEAN_ANOMALY></meanElements><tleParameters><EPHEMERIS_TYPE>0</EPHEMERIS_TYPE><CLASSIFICATION_TYPE>U</CLASSIFICATION_TYPE><NORAD_CAT_ID>25480</NORAD_CAT_ID><ELEMENT_SET_NO>999</ELEMENT_SET_NO><REV_AT_EPOCH>35945</REV_AT_EPOCH><BSTAR>.95163E-3</BSTAR><MEAN_MOTION_DOT>.2636E-4</MEAN_MOTION_DOT><MEAN_MOTION_DDOT>0</MEAN_MOTION_DDOT></tleParameters></data></segment></body></omm>
<omm id="CCSDS_OMM_VERS" version="2.0">
<header><CREATION_DATE/><ORIGINATOR/></header><body><segment><metadata><OBJECT_NAME>ORBCOMM FM27</OBJECT_NAME><OBJECT_ID>1998-053G</OBJECT_ID><CENTER_NAME>EARTH</CENTER_NAME><REF_FRAME>TEME</REF_FRAME><TIME_SYSTEM>UTC</TIME_SYSTEM><MEAN_ELEMENT_THEORY>SGP4</MEAN_ELEMENT_THEORY></metadata><data><meanElements><EPOCH>2024-09-24T13:30:52.791264</EPOCH><MEAN_MOTION>14.36429391</MEAN_MOTION><ECCENTRICITY>.0001185</ECCENTRICITY><INCLINATION>45.0050</INCLINATION><RA_OF_ASC_NODE>85.6994</RA_OF_ASC_NODE><ARG_OF_PERICENTER>171.8939</ARG_OF_PERICENTER><MEAN_ANOMALY>188.1928</MEAN_ANOMALY></meanElements><tleParameters><EPHEMERIS_TYPE>0</EPHEMERIS_TYPE><CLASSIFICATION_TYPE>U</CLASSIFICATION_TYPE><NORAD_CAT_ID>25481</NORAD_CAT_ID><ELEMENT_SET_NO>999</ELEMENT_SET_NO><REV_AT_EPOCH>35949</REV_AT_EPOCH><BSTAR>.10291E-2</BSTAR><MEAN_MOTION_DOT>.2903E-4</MEAN_MOTION_DOT><MEAN_MOTION_DDOT>0</MEAN_MOTION_DDOT></tleParameters></data></segment></body></omm>
<omm id="CCSDS_OMM_VERS" version="2.0">
<header><CREATION_DATE/><ORIGINATOR/></header><body><segment><metadata><OBJECT_NAME>ORBCOMM FM28</OBJECT_NAME><OBJECT_ID>1998-053H</OBJECT_ID><CENTER_NAME>EARTH</CENTER_NAME><REF_FRAME>TEME</REF_FRAME><TIME_SYSTEM>UTC</TIME_SYSTEM><MEAN_ELEMENT_THEORY>SGP4</MEAN_ELEMENT_THEORY></metadata><data><meanElements><EPOCH>2024-09-24T12:15:14.672736</EPOCH><MEAN_MOTION>14.36797777</MEAN_MOTION><ECCENTRICITY>.000207</ECCENTRICITY><INCLINATION>45.0069</INCLINATION><RA_OF_ASC_NODE>23.9851</RA_OF_ASC_NODE><ARG_OF_PERICENTER>49.3521</ARG_OF_PERICENTER><MEAN_ANOMALY>310.7506</MEAN_ANOMALY></meanElements><tleParameters><EPHEMERIS_TYPE>0</EPHEMERIS_TYPE><CLASSIFICATION_TYPE>U</CLASSIFICATION_TYPE><NORAD_CAT_ID>25482</NORAD_CAT_ID><ELEMENT_SET_NO>999</ELEMENT_SET_NO><REV_AT_EPOCH>36029</REV_AT_EPOCH><BSTAR>.1014E-2</BSTAR><MEAN_MOTION_DOT>.288E-4</MEAN_MOTION_DOT><MEAN_MOTION_DDOT>0</MEAN_MOTION_DDOT></tleParameters></data></segment></body></omm>
<omm id="CCSDS_OMM_VERS" version="2.0">
<header><CREATION_DATE/><ORIGINATOR/></header><body><segment><metadata><OBJECT_NAME>ORBCOMM FM30</OBJECT_NAME><OBJECT_ID>1999-065A</OBJECT_ID><CENTER_NAME>EARTH</CENTER_NAME><REF_FRAME>TEME</REF_FRAME><TIME_SYSTEM>UTC</TIME_SYSTEM><MEAN_ELEMENT_THEORY>SGP4</MEAN_ELEMENT_THEORY></metadata><data><meanElements><EPOCH>2024-09-23T09:42:43.310016</EPOCH><MEAN_MOTION>14.35895911</MEAN_MOTION><ECCENTRICITY>.0003925</ECCENTRICITY><INCLINATION>45.0313</INCLINATION><RA_OF_ASC_NODE>271.3311</RA_OF_ASC_NODE><ARG_OF_PERICENTER>110.5493</ARG_OF_PERICENTER><MEAN_ANOMALY>249.5776</MEAN_ANOMALY></meanElements><tleParameters><EPHEMERIS_TYPE>0</EPHEMERIS_TYPE><CLASSIFICATION_TYPE>U</CLASSIFICATION_TYPE><NORAD_CAT_ID>25980</NORAD_CAT_ID><ELEMENT_SET_NO>999</ELEMENT_SET_NO><REV_AT_EPOCH>29608</REV_AT_EPOCH><BSTAR>.91742E-3</BSTAR><MEAN_MOTION_DOT>.2543E-4</MEAN_MOTION_DOT><MEAN_MOTION_DDOT>0</MEAN_MOTION_DDOT></tleParameters></data></segment></body></omm>
<omm id="CCSDS_OMM_VERS" version="2.0">
<header><CREATION_DATE/><ORIGINATOR/></header><body><segment><metadata><OBJECT_NAME>ORBCOMM FM31</OBJECT_NAME><OBJECT_ID>1999-065B</OBJECT_ID><CENTER_NAME>EARTH</CENTER_NAME><REF_FRAME>TEME</REF_FRAME><TIME_SYSTEM>UTC</TIME_SYSTEM><MEAN_ELEMENT_THEORY>SGP4</MEAN_ELEMENT_THEORY></metadata><data><meanElements><EPOCH>2024-09-23T17:15:17.742240</EPOCH><MEAN_MOTION>14.35874733</MEAN_MOTION><ECCENTRICITY>.0001628</ECCENTRICITY><INCLINATION>45.0221</INCLINATION><RA_OF_ASC_NODE>263.4511</RA_OF_ASC_NODE><ARG_OF_PERICENTER>166.5415</ARG_OF_PERICENTER><MEAN_ANOMALY>193.5477</MEAN_ANOMALY></meanElements><tleParameters><EPHEMERIS_TYPE>0</EPHEMERIS_TYPE><CLASSIFICATION_TYPE>U</CLASSIFICATION_TYPE><NORAD_CAT_ID>25981</NORAD_CAT_ID><ELEMENT_SET_NO>999</ELEMENT_SET_NO><REV_AT_EPOCH>29568</REV_AT_EPOCH><BSTAR>.84013E-3</BSTAR><MEAN_MOTION_DOT>.2316E-4</MEAN_MOTION_DOT><MEAN_MOTION_DDOT>0</MEAN_MOTION_DDOT></tleParameters></data></segment></body></omm>
<omm id="CCSDS_OMM_VERS" version="2.0">
<header><CREATION_DATE/><ORIGINATOR/></header><body><segment><metadata><OBJECT_NAME>ORBCOMM FM32</OBJECT_NAME><OBJECT_ID>1999-065C</OBJECT_ID><CENTER_NAME>EARTH</CENTER_NAME><REF_FRAME>TEME</REF_FRAME><TIME_SYSTEM>UTC</TIME_SYSTEM><MEAN_ELEMENT_THEORY>SGP4</MEAN_ELEMENT_THEORY></metadata><data><meanElements><EPOCH>2024-09-23T17:24:21.241440</EPOCH><MEAN_MOTION>14.34893304</MEAN_MOTION><ECCENTRICITY>.000377</ECCENTRICITY><INCLINATION>45.0153</INCLINATION><RA_OF_ASC_NODE>278.1847</RA_OF_ASC_NODE><ARG_OF_PERICENTER>155.9503</ARG_OF_PERICENTER><MEAN_ANOMALY>204.1520</MEAN_ANOMALY></meanElements><tleParameters><EPHEMERIS_TYPE>0</EPHEMERIS_TYPE><CLASSIFICATION_TYPE>U</CLASSIFICATION_TYPE><NORAD_CAT_ID>25982</NORAD_CAT_ID><ELEMENT_SET_NO>999</ELEMENT_SET_NO><REV_AT_EPOCH>29630</REV_AT_EPOCH><BSTAR>.86608E-3</BSTAR><MEAN_MOTION_DOT>.2343E-4</MEAN_MOTION_DOT><MEAN_MOTION_DDOT>0</MEAN_MOTION_DDOT></tleParameters></data></segment></body></omm>

</ndm>
