ORBCOMM FM24            
1 25478U 98053D   24267.91041229  .00003744  00000+0  13126-2 0  9992
2 25478  45.0075  90.2762 0000588 292.8212  67.2573 14.36455996359135
ORBCOMM FM25            
1 25479U 98053E   24267.94791563  .00003590  00000+0  12611-2 0  9996
2 25479  45.0065  88.3511 0002763 349.8708  10.2083 14.36435781359432
ORBCOMM FM26            
1 25480U 98053F   24267.87311738  .00002636  00000+0  95163-3 0  9996
2 25480  45.0070  83.4538 0004869  15.3082 344.7912 14.35750500359450
ORBCOMM FM27            
1 25481U 98053G   24268.56311101  .00002903  00000+0  10291-2 0  9993
2 25481  45.0050  85.6994 0001185 171.8939 188.1928 14.36429391359499
ORBCOMM FM28            
1 25482U 98053H   24268.51058649  .00002880  00000+0  10140-2 0  9991
2 25482  45.0069  23.9851 0002070  49.3521 310.7506 14.36797777360298
ORBCOMM FM30            
1 25980U 99065A   24267.40466794  .00002543  00000+0  91742-3 0  9993
2 25980  45.0313 271.3311 0003925 110.5493 249.5776 14.35895911296083
ORBCOMM FM31            
1 25981U 99065B   24267.71895535  .00002316  00000+0  84013-3 0  9998
2 25981  45.0221 263.4511 0001628 166.5415 193.5477 14.35874733295689
ORBCOMM FM32            
1 25982U 99065C   24267.72524585  .00002343  00000+0  86608-3 0  9996
2 25982  45.0153 278.1847 0003770 155.9503 204.1520 14.34893304296301
